NORAD_CAT_ID,OBJECT_NAME,OBJECT_TYPE,EPOCH,MEAN_MOTION,ECCENTRICITY,INCLINATION,RA_OF_ASC_NODE,ARG_OF_PERICENTER,MEAN_ANOMALY,BSTAR,MEAN_MOTION_DOT,MEAN_MOTION_DDOT,TLE_LINE0,TLE_LINE1,TLE_LINE2,SEMIMAJOR_AXIS,PERIOD,APOGEE,PERIGEE,DECAYED
54165.0,STARLINK-5279,PAYLOAD,2024-03-27 21:56:14,15.08844002,0.0001326,53.2167,329.3825,92.4624,267.652,0.00039927,6.073e-05,0.0,0 STARLINK-5279,1 54165U 22141J   24087.91406074  .00006073  00000-0  39927-3 0  9992,2 54165  53.2167 329.3825 0001326  92.4624 267.6520 15.08844002 78261,6917.868,95.437,540.65,538.816,0.0
54165.0,STARLINK-5279,PAYLOAD,2024-03-28 09:03:56,15.08850598,0.0001531,53.2169,327.2983,81.3342,278.7824,0.00037471,5.682e-05,0.0,0 STARLINK-5279,1 54165U 22141J   24088.37773776  .00005682  00000-0  37471-3 0  9996,2 54165  53.2169 327.2983 0001531  81.3342 278.7824 15.08850598 78332,6917.848,95.437,540.772,538.654,0.0
54165.0,STARLINK-5279,PAYLOAD,2024-03-28 21:47:01,15.08839307,0.0001282,53.2171,324.9217,84.1104,276.0034,-2.8608e-05,-7.43e-06,0.0,0 STARLINK-5279,1 54165U 22141J   24088.90765929 -.00000743  00000-0 -28608-4 0  9994,2 54165  53.2171 324.9217 0001282  84.1104 276.0034 15.08839307 78417,6917.883,95.438,540.634,538.861,0.0
54165.0,STARLINK-5279,PAYLOAD,2024-03-28 23:22:25,15.08836337,0.0001567,53.2192,324.6221,88.5371,271.5801,-1.9038e-05,-5.91e-06,0.0,0 STARLINK-5279,1 54165U 22141J   24088.97390148 -.00000591  00000-0 -19038-4 0  9996,2 54165  53.2192 324.6221 0001567  88.5371 271.5801 15.08836337 78425,6917.892,95.438,540.841,538.673,0.0
54165.0,STARLINK-5279,PAYLOAD,2024-03-29 08:54:43,15.08844973,0.0001389,53.2191,322.8418,84.3331,275.782,0.00010461,1.378e-05,0.0,0 STARLINK-5279,1 54165U 22141J   24089.37133932  .00001378  00000-0  10461-3 0  9999,2 54165  53.2191 322.8418 0001389  84.3331 275.7820 15.08844973 78482,6917.865,95.437,540.691,538.769,0.0
54165.0,STARLINK-5279,PAYLOAD,2024-03-29 21:37:48,15.08850531,0.0001336,53.2183,320.4635,85.4516,274.6629,4.6143e-05,4.47e-06,0.0,0 STARLINK-5279,1 54165U 22141J   24089.90125651  .00000447  00000-0  46143-4 0  9990,2 54165  53.2183 320.4635 0001336  85.4516 274.6629 15.08850531 78568,6917.848,95.437,540.637,538.789,0.0
54165.0,STARLINK-5279,PAYLOAD,2024-03-30 08:45:32,15.08815117,0.000169,53.2207,318.378,83.584,276.5344,-0.00036802,-6.136e-05,0.0,0 STARLINK-5279,1 54165U 22141J   24090.36495450 -.00006136  00000-0 -36802-3 0  9992,2 54165  53.2207 318.3780 0001690  83.5840 276.5344 15.08815117 78638,6917.956,95.439,540.991,538.652,0.0
54165.0,STARLINK-5279,PAYLOAD,2024-03-30 21:28:38,15.08813589,0.0001284,53.2186,316.003,72.2344,287.8788,-0.00012749,-2.315e-05,0.0,0 STARLINK-5279,1 54165U 22141J   24090.89488594 -.00002315  00000-0 -12749-3 0  9990,2 54165  53.2186 316.0030 0001284  72.2344 287.8788 15.08813589 78717,6917.961,95.439,540.714,538.938,0.0
54165.0,STARLINK-5279,PAYLOAD,2024-03-31 00:39:23,15.08840475,0.0001376,53.2181,315.4047,92.5055,267.6094,0.00025565,3.783e-05,0.0,0 STARLINK-5279,1 54165U 22141J   24091.02735387  .00003783  00000-0  25565-3 0  9999,2 54165  53.2181 315.4047 0001376  92.5055 267.6094 15.08840475 78731,6917.879,95.438,540.696,538.792,0.0
54165.0,STARLINK-5279,PAYLOAD,2024-03-31 21:19:22,15.08862908,0.0001355,53.2174,311.5419,86.4215,273.6932,0.00048648,7.468e-05,0.0,0 STARLINK-5279,1 54165U 22141J   24091.88846035  .00007468  00000-0  48648-3 0  9997,2 54165  53.2174 311.5419 0001355  86.4215 273.6932 15.08862908 78867,6917.81,95.436,540.613,538.738,0.0
54165.0,STARLINK-5279,PAYLOAD,2024-04-01 00:30:08,15.08872478,0.000126,53.2165,310.9454,86.7357,273.378,0.00050057,7.695e-05,0.0,0 STARLINK-5279,1 54165U 22141J   24092.02093409  .00007695  00000-0  50057-3 0  9992,2 54165  53.2165 310.9454 0001260  86.7357 273.3780 15.08872478 78887,6917.781,95.436,540.518,538.774,0.0
54165.0,STARLINK-5279,PAYLOAD,2024-04-01 14:48:38,15.08838161,7.52e-05,53.2176,308.2697,59.3512,300.7554,8.1711e-05,1.013e-05,0.0,0 STARLINK-5279,1 54165U 22141J   24092.61710886  .00001013  00000-0  81711-4 0  9992,2 54165  53.2176 308.2697 0000752  59.3512 300.7554 15.08838161 78977,6917.886,95.438,540.271,539.231,0.0
54165.0,STARLINK-5279,PAYLOAD,2024-04-01 21:10:10,15.08841651,0.0001291,53.2171,307.0803,92.7271,267.3869,2.4105e-05,9.6e-07,0.0,0 STARLINK-5279,1 54165U 22141J   24092.88206613  .00000096  00000-0  24105-4 0  9993,2 54165  53.2171 307.0803 0001291  92.7271 267.3869 15.08841651 79011,6917.875,95.437,540.633,538.847,0.0
54165.0,STARLINK-5279,PAYLOAD,2024-04-02 06:42:29,15.0884467,0.0001237,53.2167,305.2951,94.4483,265.665,-0.00011254,-2.079e-05,0.0,0 STARLINK-5279,1 54165U 22141J   24093.27950286 -.00002079  00000-0 -11254-3 0  9994,2 54165  53.2167 305.2951 0001237  94.4483 265.6650 15.08844670 79073,6917.866,95.437,540.587,538.875,0.0
54165.0,STARLINK-5279,PAYLOAD,2024-04-02 21:00:57,15.08840185,0.0001362,53.2181,302.6214,101.5223,258.5922,-0.00013101,-2.372e-05,0.0,0 STARLINK-5279,1 54165U 22141J   24093.87566468 -.00002372  00000-0 -13101-3 0  9994,2 54165  53.2181 302.6214 0001362 101.5223 258.5922 15.08840185 79163,6917.88,95.438,540.687,538.803,0.0
54165.0,STARLINK-5279,PAYLOAD,2024-04-03 06:33:16,15.08839802,0.0001378,53.218,300.8371,102.2582,257.8564,6.9234e-06,-1.78e-06,0.0,0 STARLINK-5279,1 54165U 22141J   24094.27310597 -.00000178  00000-0  69234-5 0  9990,2 54165  53.2180 300.8371 0001378 102.2582 257.8564 15.08839802 79224,6917.881,95.438,540.699,538.793,0.0
54165.0,STARLINK-5279,PAYLOAD,2024-04-03 22:27:07,15.08841364,0.0001407,53.2178,297.8636,104.1085,256.0064,0.00019171,2.765e-05,0.0,0 STARLINK-5279,1 54165U 22141J   24094.93550763  .00002765  00000-0  19171-3 0  9990,2 54165  53.2178 297.8636 0001407 104.1085 256.0064 15.08841364 79325,6917.876,95.437,540.715,538.768,0.0
54165.0,STARLINK-5279,PAYLOAD,2024-04-04 06:24:03,15.08842416,0.0001341,53.2175,296.3754,94.9516,265.1629,0.00016221,2.295e-05,0.0,0 STARLINK-5279,1 54165U 22141J   24095.26670719  .00002295  00000-0  16221-3 0  9992,2 54165  53.2175 296.3754 0001341  94.9516 265.1629 15.08842416 79371,6917.873,95.437,540.666,538.81,0.0
54165.0,STARLINK-5279,PAYLOAD,2024-04-04 20:42:31,15.08843947,0.0001332,53.2173,293.6985,90.7578,269.3566,0.00014522,2.024e-05,0.0,0 STARLINK-5279,1 54165U 22141J   24095.86286698  .00002024  00000-0  14522-3 0  9999,2 54165  53.2173 293.6985 0001332  90.7578 269.3566 15.08843947 79463,6917.868,95.437,540.655,538.812,0.0
54165.0,STARLINK-5279,PAYLOAD,2024-04-04 22:17:54,15.08844991,0.0001342,53.2174,293.4012,90.8212,269.2934,0.00015649,2.204e-05,0.0,0 STARLINK-5279,1 54165U 22141J   24095.92910640  .00002204  00000-0  15649-3 0  9998,2 54165  53.2174 293.4012 0001342  90.8212 269.2934 15.08844991 79479,6917.865,95.437,540.659,538.802,0.0
54165.0,STARLINK-5279,PAYLOAD,2024-04-05 12:36:22,15.08845975,0.0001407,53.2171,290.725,86.6071,273.5082,0.00013874,1.921e-05,0.0,0 STARLINK-5279,1 54165U 22141J   24096.52526518  .00001921  00000-0  13874-3 0  9995,2 54165  53.2171 290.7250 0001407  86.6071 273.5082 15.08845975 79563,6917.862,95.437,540.7,538.754,0.0
54165.0,STARLINK-5279,PAYLOAD,2024-04-05 18:57:55,15.08848442,0.000133,53.2162,289.5358,87.2336,272.8808,0.00016412,2.326e-05,0.0,0 STARLINK-5279,1 54165U 22141J   24096.79022293  .00002326  00000-0  16412-3 0  9996,2 54165  53.2162 289.5358 0001330  87.2336 272.8808 15.08848442 79609,6917.855,95.437,540.64,538.8,0.0
54165.0,STARLINK-5279,PAYLOAD,2024-04-06 12:27:09,15.08845204,0.0001334,53.2163,286.2661,84.772,275.3425,0.00010412,1.37e-05,0.0,0 STARLINK-5279,1 54165U 22141J   24097.51886287  .00001370  00000-0  10412-3 0  9990,2 54165  53.2163 286.2661 0001334  84.7720 275.3425 15.08845204 79712,6917.864,95.437,540.652,538.807,0.0
54165.0,STARLINK-5279,PAYLOAD,2024-04-06 18:48:42,15.08841937,0.000136,53.2165,285.0765,84.898,275.2168,5.1167e-05,5.27e-06,0.0,0 STARLINK-5279,1 54165U 22141J   24097.78382441  .00000527  00000-0  51167-4 0  9998,2 54165  53.2165 285.0765 0001360  84.8980 275.2168 15.08841937 79750,6917.874,95.437,540.68,538.799,0.0
54165.0,STARLINK-5279,PAYLOAD,2024-04-07 12:17:57,15.08837336,0.0001341,53.2155,281.8048,84.7101,275.4044,-3.1115e-06,-3.37e-06,0.0,0 STARLINK-5279,1 54165U 22141J   24098.51246765 -.00000337  00000-0 -31115-5 0  9991,2 54165  53.2155 281.8048 0001341  84.7101 275.4044 15.08837336 79865,6917.889,95.438,540.681,538.826,0.0
54165.0,STARLINK-5279,PAYLOAD,2024-04-07 18:39:29,15.0883837,0.0001334,53.2166,280.6151,85.5641,274.5504,3.9239e-06,-2.25e-06,0.0,0 STARLINK-5279,1 54165U 22141J   24098.77742960 -.00000225  00000-0  39239-5 0  9997,2 54165  53.2166 280.6151 0001334  85.5641 274.5504 15.08838370 79904,6917.885,95.438,540.673,538.828,0.0
54165.0,STARLINK-5279,PAYLOAD,2024-04-08 18:30:14,15.08868177,0.0001762,53.2126,276.1519,89.2182,270.9012,1.1979e-05,-9.7e-07,0.0,0 STARLINK-5279,1 54165U 22141J   24099.77100399 -.00000097  00000-0  11979-4 0  9999,2 54165  53.2126 276.1519 0001762  89.2182 270.9012 15.08868177 80054,6917.794,95.436,540.878,538.44,0.0
54165.0,STARLINK-5279,PAYLOAD,2024-04-08 21:41:01,15.08864281,0.000179,53.216,275.5573,96.6822,263.4374,0.00011529,1.548e-05,0.0,0 STARLINK-5279,1 54165U 22141J   24099.90348528  .00001548  00000-0  11529-3 0  9993,2 54165  53.2160 275.5573 0001790  96.6822 263.4374 15.08864281 80071,6917.806,95.436,540.909,538.433,0.0
54165.0,STARLINK-5279,PAYLOAD,2024-04-09 11:59:30,15.08839741,0.000231,53.2111,272.8818,90.7378,269.3879,-2.033e-05,-6.12e-06,0.0,0 STARLINK-5279,1 54165U 22141J   24100.49966070 -.00000612  00000-0 -20330-4 0  9992,2 54165  53.2111 272.8818 0002310  90.7378 269.3879 15.08839741 80167,6917.881,95.438,541.344,538.148,0.0
54165.0,STARLINK-5279,PAYLOAD,2024-04-09 18:21:03,15.08838689,0.0002053,53.219,271.6916,97.8108,262.3117,2.062e-05,4e-07,0.0,0 STARLINK-5279,1 54165U 22141J   24100.76462554  .00000040  00000-0  20620-4 0  9995,2 54165  53.2190 271.6916 0002053  97.8108 262.3117 15.08838689 80206,6917.884,95.438,541.17,538.329,0.0
